IRIDIUM 36              
1 24967U 97056C   24194.82070754  .00000768  00000+0  25312-3 0  9994
2 24967  86.3982 315.5308 0002247  89.7000 270.4454 14.36885840403471
IRIDIUM 39              
1 25042U 97069D   24195.19909310  .00001118  00000+0  29489-3 0  9992
2 25042  86.3931 356.4153 0018274   4.8794 355.2584 14.48057868400148
IRIDIUM 38              
1 25043U 97069E   24194.88981545  .00000696  00000+0  22696-3 0  9991
2 25043  86.3963  15.8599 0003657 109.5417 250.6176 14.37331564397201
IRIDIUM 42              
1 25077U 97077A   24195.04284287  .00000620  00000+0  20839-3 0  9999
2 25077  86.3962  21.5464 0002492 102.1307 258.0169 14.35624829392526
IRIDIUM 44              
1 25078U 97077B   24194.93437114  .00000722  00000+0  22554-3 0  9995
2 25078  86.3967   4.4318 0003862  77.6438 282.5193 14.39471453394880
IRIDIUM 45              
1 25104U 97082A   24194.57214869  .00013896  00000+0  75622-3 0  9991
2 25104  86.3721 210.3271 0159013 146.0633 215.0900 15.04015114400675
IRIDIUM 24              
1 25105U 97082B   24194.78248878  .00000686  00000+0  20597-3 0  9996
2 25105  86.3906 224.0376 0013631 114.8269 245.4350 14.41257026394311
IRIDIUM 51              
1 25262U 98018A   24195.12512866  .00020737  00000+0  91952-3 0  9992
2 25262  86.3956 219.8071 0144879  87.5667 274.2150 15.12415497395553
